CCSDS_OMM_VERS,COMMENT,CREATION_DATE,ORIGINATOR,OBJECT_NAME,OBJECT_ID,CENTER_NAME,REF_FRAME,TIME_SYSTEM,MEAN_ELEMENT_THEORY,EPOCH,MEAN_MOTION,ECCENTRICITY,INCLINATION,RA_OF_ASC_NODE,ARG_OF_PERICENTER,MEAN_ANOMALY,EPHEMERIS_TYPE,CLASSIFICATION_TYPE,NORAD_CAT_ID,ELEMENT_SET_NO,REV_AT_EPOCH,BSTAR,MEAN_MOTION_DOT,MEAN_MOTION_DDOT,SEMIMAJOR_AXIS,PERIOD,APOAPSIS,PERIAPSIS,OBJECT_TYPE,RCS_SIZE,COUNTRY_CODE,LAUNCH_DATE,SITE,DECAY_DATE,FILE,GP_ID,TLE_LINE0,TLE_LINE1,TLE_LINE2
"2.0","GENERATED VIA SPACE-TRACK.ORG API","2013-10-19T23:36:21","18 SPCS","PAYLOAD B","2013-037B","EARTH","TEME","UTC","SGP4","2013-10-19T18:05:52.302047","14.67258885","0.00060800","98.0534","308.8657","73.0777","287.1073","0","U","39209","999","1345","0.00007243500000","0.00000360","0.0000000000000","7047.973","98.142","674.124","665.553","PAYLOAD","LARGE","PRC","2013-07-19","TSC","","1566485","94122175","0 PAYLOAD B","1 39209U 13037B   13292.75407757  .00000360  00000-0  72435-4 0  9990","2 39209 098.0534 308.8657 0006080 073.0777 287.1073 14.67258885 13451"
"2.0","GENERATED VIA SPACE-TRACK.ORG API","2013-10-19T23:38:19","18 SPCS","PAYLOAD C","2013-037C","EARTH","TEME","UTC","SGP4","2013-10-19T18:08:04.326431","14.95044606","0.00352600","97.6950","308.9474","93.4682","267.0524","0","U","39210","999","1364","0.00011074000000","0.00001168","0.0000000000000","6960.375","96.318","606.783","557.698","PAYLOAD","LARGE","PRC","2013-07-19","TSC","","1566490","94122231","0 PAYLOAD C","1 39210U 13037C   13292.75560563  .00001168  00000-0  11074-3 0  9995","2 39210 097.6950 308.9474 0035260 093.4682 267.0524 14.95044606 13645"
"2.0","GENERATED VIA SPACE-TRACK.ORG API","2013-10-19T21:04:29","18 SPCS","PAYLOAD A","2013-037A","EARTH","TEME","UTC","SGP4","2013-10-19T19:59:28.145760","14.67906108","0.00104660","98.0549","309.0792","78.2399","281.9985","0","U","39208","999","1348","-0.00004168700000","-0.00000287","0.0000000000000","7045.902","98.098","675.141","660.392","PAYLOAD","LARGE","PRC","2013-07-19","TSC","","1566338","94119603","0 PAYLOAD A","1 39208U 13037A   13292.83296465 -.00000287  00000-0 -41687-4 0  9995","2 39208 098.0549 309.0792 0010466 078.2399 281.9985 14.67906108 13484"
"2.0","GENERATED VIA SPACE-TRACK.ORG API","2013-10-20T07:53:30","18 SPCS","PAYLOAD B","2013-037B","EARTH","TEME","UTC","SGP4","2013-10-20T02:16:52.640544","14.67259927","0.00061250","98.0533","309.2012","72.2180","287.9720","0","U","39209","999","1350","0.00009458100000","0.00000485","0.0000000000000","7047.970","98.142","674.152","665.518","PAYLOAD","LARGE","PRC","2013-07-19","TSC","","1566685","94125037","0 PAYLOAD B","1 39209U 13037B   13293.09505371  .00000485  00000-0  94581-4 0  9993","2 39209 098.0533 309.2012 0006125 072.2180 287.9720 14.67259927 13500"
"2.0","GENERATED VIA SPACE-TRACK.ORG API","2013-10-20T07:53:48","18 SPCS","PAYLOAD C","2013-037C","EARTH","TEME","UTC","SGP4","2013-10-20T03:46:20.495423","14.95044671","0.00352710","97.6947","309.3416","92.1545","268.3691","0","U","39210","999","1370","0.00009554800000","0.00001000","0.0000000000000","6960.375","96.318","606.790","557.690","PAYLOAD","LARGE","PRC","2013-07-19","TSC","","1566686","94125069","0 PAYLOAD C","1 39210U 13037C   13293.15718166  .00001000  00000-0  95548-4 0  9998","2 39210 097.6947 309.3416 0035271 092.1545 268.3691 14.95044671 13706"
"2.0","GENERATED VIA SPACE-TRACK.ORG API","2013-10-20T06:38:33","18 SPCS","PAYLOAD A","2013-037A","EARTH","TEME","UTC","SGP4","2013-10-20T04:10:15.408480","14.67906667","0.00103580","98.0547","309.4144","77.6027","282.6343","0","U","39208","999","1353","-0.00001540300000","-0.00000136","0.0000000000000","7045.900","98.098","675.063","660.467","PAYLOAD","LARGE","PRC","2013-07-19","TSC","","1566604","94123068","0 PAYLOAD A","1 39208U 13037A   13293.17378945 -.00000136  00000-0 -15403-4 0  9997","2 39208 098.0547 309.4144 0010358 077.6027 282.6343 14.67906667 13530"
"2.0","GENERATED VIA SPACE-TRACK.ORG API","2013-10-20T15:49:57","18 SPCS","PAYLOAD B","2013-037B","EARTH","TEME","UTC","SGP4","2013-10-20T10:27:52.877951","14.67260325","0.00061230","98.0534","309.5364","71.2861","288.9009","0","U","39209","999","1355","0.00009508500000","0.00000488","0.0000000000000","7047.969","98.142","674.149","665.518","PAYLOAD","LARGE","PRC","2013-07-19","TSC","","1566831","94128288","0 PAYLOAD B","1 39209U 13037B   13293.43602868  .00000488  00000-0  95085-4 0  9993","2 39209 098.0534 309.5364 0006123 071.2861 288.9009 14.67260325 13557"
"2.0","GENERATED VIA SPACE-TRACK.ORG API","2013-10-20T11:34:40","18 SPCS","PAYLOAD A","2013-037A","EARTH","TEME","UTC","SGP4","2013-10-20T10:42:53.209152","14.67907938","0.00104050","98.0546","309.6827","76.8397","283.3989","0","U","39208","999","1357","0.00002579500000","0.00000099","0.0000000000000","7045.896","98.098","675.092","660.429","PAYLOAD","LARGE","PRC","2013-07-19","TSC","","1566698","94125284","0 PAYLOAD A","1 39208U 13037A   13293.44644918  .00000099  00000-0  25795-4 0  9994","2 39208 098.0546 309.6827 0010405 076.8397 283.3989 14.67907938 13573"
"2.0","GENERATED VIA SPACE-TRACK.ORG API","2013-10-20T15:51:36","18 SPCS","PAYLOAD C","2013-037C","EARTH","TEME","UTC","SGP4","2013-10-20T11:48:13.948703","14.95044778","0.00352380","97.6946","309.6698","91.0688","269.4560","0","U","39210","999","1375","0.00008684800000","0.00000904","0.0000000000000","6960.375","96.318","606.767","557.713","PAYLOAD","LARGE","PRC","2013-07-19","TSC","","1566833","94128331","0 PAYLOAD C","1 39210U 13037C   13293.49182811  .00000904  00000-0  86848-4 0  9992","2 39210 097.6946 309.6698 0035238 091.0688 269.4560 14.95044778 13759"
"2.0","GENERATED VIA SPACE-TRACK.ORG API","2013-10-20T17:42:44","18 SPCS","PAYLOAD A","2013-037A","EARTH","TEME","UTC","SGP4","2013-10-20T15:37:21.491616","14.67888965","0.00104390","98.0532","309.8823","74.5274","285.7035","0","U","39208","999","1360","-0.00725010000000","-0.00041261","0.0000000000000","7045.956","98.100","675.177","660.466","PAYLOAD","LARGE","PRC","2013-07-19","TSC","","1566858","94128524","0 PAYLOAD A","1 39208U 13037A   13293.65094319 -.00041261  00000-0 -72501-2 0  9994","2 39208 098.0532 309.8823 0010439 074.5274 285.7035 14.67888965 13602"
"2.0","GENERATED VIA SPACE-TRACK.ORG API","2013-10-20T22:29:01","18 SPCS","PAYLOAD A","2013-037A","EARTH","TEME","UTC","SGP4","2013-10-20T17:15:31.116095","14.67908844","0.00103910","98.0544","309.9509","75.9151","284.3310","0","U","39208","999","1361","0.00005196700000","0.00000249","0.0000000000000","7045.893","98.098","675.079","660.436","PAYLOAD","LARGE","PRC","2013-07-19","TSC","","1566905","94129127","0 PAYLOAD A","1 39208U 13037A   13293.71911014  .00000249  00000-0  51967-4 0  9995","2 39208 098.0544 309.9509 0010391 075.9151 284.3310 14.67908844 13614"
"2.0","GENERATED VIA SPACE-TRACK.ORG API","2013-10-20T23:36:24","18 SPCS","PAYLOAD B","2013-037B","EARTH","TEME","UTC","SGP4","2013-10-20T18:38:53.157695","14.67260275","0.00060950","98.0534","309.8715","70.7770","289.4080","0","U","39209","999","1360","0.00008380400000","0.00000425","0.0000000000000","7047.969","98.142","674.130","665.538","PAYLOAD","LARGE","PRC","2013-07-19","TSC","","1566996","94131142","0 PAYLOAD B","1 39209U 13037B   13293.77700414  .00000425  00000-0  83804-4 0  9993","2 39209 098.0534 309.8715 0006095 070.7770 289.4080 14.67260275 13606"
"2.0","GENERATED VIA SPACE-TRACK.ORG API","2013-10-20T23:37:39","18 SPCS","PAYLOAD C","2013-037C","EARTH","TEME","UTC","SGP4","2013-10-20T19:50:07.382976","14.95044522","0.00352170","97.6946","309.9981","90.0578","270.4649","0","U","39210","999","1380","0.00007603400000","0.00000784","0.0000000000000","6960.376","96.318","606.753","557.728","PAYLOAD","LARGE","PRC","2013-07-19","TSC","","1566997","94131179","0 PAYLOAD C","1 39210U 13037C   13293.82647434  .00000784  00000-0  76034-4 0  9998","2 39210 097.6946 309.9981 0035217 090.0578 270.4649 14.95044522 13804"
"2.0","GENERATED VIA SPACE-TRACK.ORG API","2013-10-21T07:23:49","18 SPCS","PAYLOAD B","2013-037B","EARTH","TEME","UTC","SGP4","2013-10-21T01:11:41.409312","14.67260630","0.00060610","98.0531","310.1396","70.2433","289.9434","0","U","39209","999","1364","0.00008746800000","0.00000445","0.0000000000000","7047.968","98.142","674.105","665.561","PAYLOAD","LARGE","PRC","2013-07-19","TSC","","1567186","94133715","0 PAYLOAD B","1 39209U 13037B   13294.04978483  .00000445  00000-0  87468-4 0  9999","2 39209 098.0531 310.1396 0006061 070.2433 289.9434 14.67260630 13644"
"2.0","GENERATED VIA SPACE-TRACK.ORG API","2013-10-21T07:24:07","18 SPCS","PAYLOAD C","2013-037C","EARTH","TEME","UTC","SGP4","2013-10-21T03:52:00.859584","14.95044116","0.00352780","97.6940","310.3268","88.9081","271.6165","0","U","39210","999","1385","0.00005906200000","0.00000596","0.0000000000000","6960.377","96.318","606.797","557.687","PAYLOAD","LARGE","PRC","2013-07-19","TSC","","1567187","94133749","0 PAYLOAD C","1 39210U 13037C   13294.16112106  .00000596  00000-0  59062-4 0  9992","2 39210 097.6940 310.3268 0035278 088.9081 271.6165 14.95044116 13854"
"2.0","GENERATED VIA SPACE-TRACK.ORG API","2013-10-21T06:25:51","18 SPCS","PAYLOAD A","2013-037A","EARTH","TEME","UTC","SGP4","2013-10-21T04:42:37.118015","14.67909417","0.00103860","98.0544","310.4204","74.4288","285.8071","0","U","39208","999","1368","0.00005935100000","0.00000291","0.0000000000000","7045.891","98.098","675.074","660.438","PAYLOAD","LARGE","PRC","2013-07-19","TSC","","1567110","94131922","0 PAYLOAD A","1 39208U 13037A   13294.19626294  .00000291  00000-0  59351-4 0  9993","2 39208 098.0544 310.4204 0010386 074.4288 285.8071 14.67909417 13686"
